HULIANWANG DIGUI-32     
1 64285U 25121C   25356.14405137  .00000088  00000+0  17049-3 0  9991
2 64285  86.4925  73.2375 0001548 112.1085 248.0213 13.24419500 26720
HULIANWANG DIGUI-33     
1 64286U 25121D   25356.13648571  .00000069  00000+0  12599-3 0  9996
2 64286  86.4984  73.3546 0001511 116.3801 243.7488 13.24419779 26723
HULIANWANG DIGUI-34     
1 64287U 25121E   25356.12893432  .00000058  00000+0  10071-3 0  9995
2 64287  86.4962  73.3047 0001447 124.3311 235.7960 13.24419212 26727
SXM-10                  
1 64290U 25122A   25356.07326241  .00000005  00000+0  00000+0 0  9992
2 64290   0.0182  20.7625 0002703 340.0875   0.2445  1.00268654  1902
STARLINK-34448          
1 64291U 25123A   25355.48279593  .00002595  00000+0  22519-3 0  9994
2 64291  70.0016  31.6588 0003545 270.2438  89.8315 14.98334939 31126
STARLINK-34362          
1 64292U 25123B   25356.09617963 -.00175382  00000+0 -15242-1 0  9990
2 64292  70.0036  30.1851 0003127 126.4406 233.7042 14.97869093 31219
STARLINK-34428          
1 64293U 25123C   25355.52852984  .00005079  00000+0  43310-3 0  9994
2 64293  70.0012  31.4108 0003148 268.5681  91.5117 14.98334520 31136
STARLINK-34388          
1 64294U 25123D   25355.37014740  .00003730  00000+0  32017-3 0  9992
2 64294  70.0016  32.0614 0003144 272.3873  87.6926 14.98338158 31104
STARLINK-34424          
1 64295U 25123E   25356.11228862  .00898016  00000+0  67299-1 0  9995
2 64295  70.0028  30.2315 0010241 209.4993 150.5591 15.00039381 31216
STARLINK-34443          
1 64296U 25123F   25356.14605565  .00003446  00000+0  29639-3 0  9991
2 64296  70.0012  29.9556 0003545 271.0148  89.0605 14.98338792 31225
STARLINK-34369          
1 64297U 25123G   25355.82494356  .00002463  00000+0  21408-3 0  9994
2 64297  70.0012  30.8374 0003350 270.9426  89.1350 14.98336470 29952
STARLINK-34391          
1 64298U 25123H   25356.18359600  .00005094  00000+0  43424-3 0  9992
2 64298  70.0015  29.6848 0003501 269.6933  90.3825 14.98342313 30017
STARLINK-34378          
1 64299U 25123J   25356.14620279  .00016528  00000+0  13904-2 0  9995
2 64299  70.0013  29.9571 0004917 278.0758  81.9843 14.98306669 30002
STARLINK-34376          
1 64300U 25123K   25356.00001156  .00062733  00000+0  52224-2 0  9997
2 64300  70.0010  30.4761 0003399 268.4537 249.0223 14.98299971  5683
STARLINK-34372          
1 64301U 25123L   25356.08764492  .00003641  00000+0  31277-3 0  9994
2 64301  70.0017  30.1523 0002995 269.2681  90.8135 14.98336366 29998
STARLINK-34379          
1 64302U 25123M   25356.06610377  .00045296  00000+0  10300-2 0  9990
2 64302  70.0035  14.4425 0002729 259.6216 100.4658 15.42762234 30387
STARLINK-34356          
1 64303U 25123N   25356.12102310  .00007733  00000+0  65493-3 0  9999
2 64303  70.0013  29.8658 0003781 284.5359  75.5380 14.98340175 30005
STARLINK-34360          
1 64304U 25123P   25356.16709347  .00002590  00000+0  22475-3 0  9996
2 64304  70.0019  30.0258 0003083 271.0691  89.0115 14.98337519 30001
STARLINK-34383          
1 64305U 25123Q   25356.18378851  .00004611  00000+0  39383-3 0  9993
2 64305  70.0014  30.0804 0003466 271.6284  88.4478 14.98340523 30007
STARLINK-34355          
1 64306U 25123R   25356.11285485  .00004414  00000+0  37735-3 0  9997
2 64306  70.0017  30.2373 0003393 270.5682  89.5088 14.98341514 29999
STARLINK-34380          
1 64307U 25123S   25355.84164657  .00006648  00000+0  56426-3 0  9993
2 64307  70.0025  30.8956 0002865 273.3679  86.7152 14.98341715 29952
STARLINK-34374          
1 64308U 25123T   25356.16245677  .01065983  00000+0  78259-1 0  9996
2 64308  70.0032  30.0095 0012945 230.9481 129.0528 15.00334162 30005
STARLINK-34370          
1 64309U 25123U   25356.08782198  .00003285  00000+0  28300-3 0  9992
2 64309  70.0021  30.1480 0002937 265.5164  94.5660 14.98328704 29995
STARLINK-34357          
1 64310U 25123V   25356.10851788  .00007501  00000+0  63552-3 0  9992
2 64310  70.0019  30.2272 0003008 270.4004  89.6811 14.98344998 29998
STARLINK-34368          
1 64311U 25123W   25356.16692566  .00002704  00000+0  23425-3 0  9991
2 64311  70.0016  30.0202 0003997 271.1748  88.8953 14.98336461 30005
STARLINK-34384          
1 64312U 25123X   25355.82478101  .00003457  00000+0  29731-3 0  9993
2 64312  70.0031  30.8406 0002637 272.2592  87.8265 14.98335093 29953
STARLINK-34358          
1 64313U 25123Y   25355.54938990  .00002637  00000+0  22869-3 0  9994
2 64313  70.0009  31.4835 0003591 269.7950  90.2798 14.98338135 29916
STARLINK-34354          
1 64314U 25123Z   25355.80807414 -.00003277  00000+0 -26699-3 0  9998
2 64314  70.0025  30.7799 0003055 273.9762  86.1047 14.98328999 29951
STARLINK-34387          
1 64315U 25123AA  25355.79974810  .00005301  00000+0  45149-3 0  9991
2 64315  70.0016  30.7511 0003145 272.7032  87.3767 14.98347212 29952
STARLINK-33590          
1 64316U 25123AB  25356.07528057  .00001988  00000+0  17433-3 0  9994
2 64316  70.0015  30.0987 0002946 274.4279  85.6543 14.98335585 29999
STARLINK-11736 [DTC]    
1 64317U 25124A   25355.68932860  .00186761  00000+0  14213-2 0  9998
2 64317  43.0012 139.6751 0002814 266.7068  93.3478 15.70925378 30560
STARLINK-11673 [DTC]    
1 64318U 25124B   25356.11317667  .00256906  00000+0  19328-2 0  9991
2 64318  43.0026 136.8226 0001234 318.9035  41.1740 15.70982211 30631
STARLINK-11671 [DTC]    
1 64319U 25124C   25356.10255462  .00213609  00000+0  16221-2 0  9997
2 64319  42.9998 136.7349 0001162 296.4915  63.5834 15.70893689 30632
STARLINK-11594 [DTC]    
1 64320U 25124D   25354.42298139  .00110609  00000+0  85068-3 0  9992
2 64320  43.0011 147.3825 0002949 293.6183  66.4375 15.70931904 30364
STARLINK-11596 [DTC]    
1 64321U 25124E   25355.74759995  .00269381  00000+0  20229-2 0  9990
2 64321  42.9999 139.2465 0002773 265.3502  94.7049 15.70987387 30575
STARLINK-11747 [DTC]    
1 64322U 25124F   25355.10115510  .00203721  00000+0  15505-2 0  9997
2 64322  43.0035 142.9929 0002180 272.1087  87.9531 15.70871405 30473
STARLINK-11728 [DTC]    
1 64323U 25124G   25355.76870840  .00172453  00000+0  13162-2 0  9998
2 64323  42.9997 138.5211 0001699 290.2858  69.7827 15.70905125 30580
STARLINK-11696 [DTC]    
1 64324U 25124H   25356.09725222  .00280852  00000+0  21131-2 0  9997
2 64324  42.9997 136.6917 0001280  26.2174 333.8758 15.70907594 30633
STARLINK-11698 [DTC]    
1 64325U 25124J   25356.10346581  .00212470  00000+0  16139-2 0  9990
2 64325  43.0000 136.7394 0001253 301.5062  58.5683 15.70891352 30638
STARLINK-11678 [DTC]    
1 64326U 25124K   25356.12379280  .00092958  00000+0  71656-3 0  9998
2 64326  43.0002 136.9037 0001197 298.5550  61.5197 15.70949800 30637
STARLINK-11674 [DTC]    
1 64327U 25124L   25356.09191194  .00241586  00000+0  18143-2 0  9995
2 64327  43.0015 136.6466 0007217 264.1839  95.8206 15.71047904 30639
STARLINK-11707 [DTC]    
1 64328U 25124M   25356.10786152  .00203334  00000+0  15408-2 0  9992
2 64328  43.0006 136.7729 0002035 289.2094  70.8554 15.70976342 30632
STARLINK-11734 [DTC]    
1 64329U 25124N   25356.16668980 -.00137903  00000+0 -10870-2 0  9995
2 64329  43.0008 136.0449 0001826 258.8776 224.5856 15.70883580  6023
STARLINK-34252          
1 64330U 25124P   25355.91411876  .00024578  00000+0  89942-3 0  9997
2 64330  42.9988 201.1250 0001402 284.9052  75.1644 15.27589494 29884
STARLINK-34050          
1 64331U 25124Q   25355.70766281  .00024417  00000+0  89366-3 0  9990
2 64331  42.9989 202.1540 0002260 289.0485  71.0122 15.27587519 30916
STARLINK-33782          
1 64332U 25124R   25354.64991649  .00012462  00000+0  46180-3 0  9995
2 64332  43.0003 207.9685 0001321 258.1294 101.9409 15.27565474 29691
STARLINK-34207          
1 64333U 25124S   25356.00001156  .00069409  00000+0  25105-2 0  9999
2 64333  43.0006 200.5886 0001576 277.6277 216.6600 15.27549670  5877
STARLINK-34260          
1 64334U 25124T   25355.98334127  .00022057  00000+0  80820-3 0  9997
2 64334  43.0001 200.7765 0001591 268.6310  91.4360 15.27598779 29890
STARLINK-33855          
1 64335U 25124U   25355.88841324  .00018547  00000+0  68139-3 0  9997
2 64335  43.0006 200.9197 0001332 249.9692 110.1016 15.27599563 29883
STARLINK-34223          
1 64336U 25124V   25355.94270353  .00019763  00000+0  72518-3 0  9990
2 64336  43.0029 197.0099 0001917 285.4198  74.6442 15.27607079 29936
STARLINK-34216          
1 64337U 25124W   25355.93964036  .00033327  00000+0  12155-2 0  9990
2 64337  42.9979 200.4445 0001702 275.7988  84.2670 15.27570040 29896
STARLINK-34218          
1 64338U 25124X   25355.95426863  .00025012  00000+0  91496-3 0  9992
2 64338  43.0031 197.1014 0001917 271.0816  88.9816 15.27594338 29933
STARLINK-34017          
1 64339U 25124Y   25355.96534514  .00026223  00000+0  95927-3 0  9995
2 64339  42.9989 200.6396 0000309 172.1790 187.9066 15.27573389 29898
QPS-SAR-11 (YAMATSUMI-I)
1 64340U 25125A   25355.61938120  .00004725  00000+0  39305-3 0  9992
2 64340  42.0088  89.4244 0007500  60.4639 299.6933 14.99490326 28943
STARLINK-33977          
1 64344U 25126A   25356.04839701  .00004148  00000+0  35516-3 0  9999
2 64344  69.9993 230.1513 0002802 271.5400  88.5438 14.98340160 30267
STARLINK-34426          
1 64345U 25126B   25356.16668980  .00000559  00000+0  54662-4 0  9998
2 64345  69.9994 229.8253 0002871 275.7404  25.6218 14.98333925  5600
STARLINK-34437          
1 64346U 25126C   25356.07326743 -.00002410  00000+0 -19425-3 0  9994
2 64346  69.9991 230.2366 0002540 262.8636  97.2235 14.98333088 29055
STARLINK-34407          
1 64347U 25126D   25356.07761808  .00005973  00000+0  50784-3 0  9998
2 64347  69.9996 230.2483 0002516 265.5124  94.5748 14.98342150 29055
STARLINK-34274          
1 64348U 25126E   25356.08997339  .00006093  00000+0  51785-3 0  9996
2 64348  69.9998 230.2967 0002552 274.7725  85.3142 14.98344114 29052
